     3.03           NAVIGATION DATA     M: Mixed            RINEX VERSION / TYPE
rinex ON            NSL                 20191112 155907 UTC PGM / RUN BY / DATE
GLUT -0.0000000000e+00 0.000000000e+00      0    0          TIME SYSTEM CORR
GLGP  4.2840838432e-08 0.000000000e+00      0    0          TIME SYSTEM CORR
                                                            END OF HEADER
G10 2019 11 12 08 00 00-1.313518732786e-04-1.489297574153e-11 0.000000000000e+00
     6.700000000000e+01 1.643750000000e+01 4.841987402496e-09-1.069192530858e+00
     7.655471563339e-07 5.039308336563e-03 4.755333065987e-06 5.153654092789e+03
     2.016000000000e+05 1.229345798492e-07 1.336413164390e+00-5.774199962616e-08
     9.636033083227e-01 2.915312500000e+02-2.740159912922e+00-8.198198630737e-09
     1.053615315878e-10 0.000000000000e+00 2.079000000000e+03 0.000000000000e+00
     2.000000000000e+00 0.000000000000e+00 1.862645149231e-09 6.700000000000e+01
     2.015760000000e+05 0.000000000000e+00
G12 2019 11 12 08 00 00 1.843795180321e-04-3.979039320257e-12 0.000000000000e+00
     2.800000000000e+01 2.868750000000e+01 4.583405202938e-09-3.568995203776e-01
     1.544132828712e-06 7.535615586676e-03 1.501291990280e-06 5.153551811218e+03
     2.016000000000e+05-5.215406417847e-08-1.733737927224e+00 9.872019290924e-08
     9.804920246056e-01 3.668125000000e+02 1.104594574912e+00-8.501782704804e-09
     1.842933908452e-10 0.000000000000e+00 2.079000000000e+03 0.000000000000e+00
     2.000000000000e+00 0.000000000000e+00-1.257285475731e-08 2.800000000000e+01
     2.015760000000e+05 0.000000000000e+00
G15 2019 11 12 08 00 00-2.732397988439e-04 2.728484105319e-12 0.000000000000e+00
     1.030000000000e+02-4.828125000000e+01 5.327364763269e-09 2.207838629204e+00
    -2.665445208549e-06 1.199273020029e-02 8.339062333107e-06 5.153593196869e+03
     2.016000000000e+05-9.499490261078e-08 2.287218901928e+00-2.421438694000e-07
     9.279830027426e-01 2.035312500000e+02 8.371204410836e-01-8.354276560581e-09
    -6.307405585903e-10 0.000000000000e+00 2.079000000000e+03 0.000000000000e+00
     2.000000000000e+00 0.000000000000e+00-1.117587089539e-08 1.030000000000e+02
     2.015760000000e+05 0.000000000000e+00
G24 2019 11 12 08 00 00-4.765577614307e-06-4.547473508865e-13 0.000000000000e+00
     4.800000000000e+01 1.013437500000e+02 4.657694011651e-09 1.175902331086e+00
     5.288049578667e-06 9.033890441060e-03 1.146830618382e-05 5.153684238434e+03
     2.016000000000e+05-8.940696716309e-08-2.905747636647e+00 9.685754776001e-08
     9.380563069990e-01 1.453125000000e+02 6.211380612363e-01-8.209270520497e-09
     2.714398779890e-11 0.000000000000e+00 2.079000000000e+03 0.000000000000e+00
     2.000000000000e+00 0.000000000000e+00 2.793967723846e-09 4.800000000000e+01
     2.015760000000e+05 0.000000000000e+00
G31 2019 11 12 07 59 44-2.642162144184e-06-2.501110429876e-12 0.000000000000e+00
     2.800000000000e+01 9.700000000000e+01 4.281606917543e-09-7.839141617428e-02
     5.206093192101e-06 9.523890796117e-03 9.628012776375e-06 5.153737363815e+03
     2.015840000000e+05 1.266598701477e-07-2.822233591917e+00-2.048909664154e-08
     9.593128095148e-01 1.908750000000e+02 5.965496560020e-02-8.074622054705e-09
     2.142946405177e-10 0.000000000000e+00 2.079000000000e+03 0.000000000000e+00
     2.000000000000e+00 0.000000000000e+00-1.350417733192e-08 2.800000000000e+01
     2.015760000000e+05 0.000000000000e+00
R12 2019 11 12 07 59 30 7.848907262087e-05 3.637978807092e-12 2.015700000000e+05
    -1.048274462891e+04 4.575891494751e-01 2.793967723846e-09 0.000000000000e+00
     2.198268798828e+04-9.410314559937e-01 0.000000000000e+00-1.000000000000e+00
     7.581908203125e+03 3.377549171448e+00-1.862645149231e-09 0.000000000000e+00
R11 2019 11 12 07 59 30 2.025347203016e-05 0.000000000000e+00 2.015700000000e+05
    -1.290714892578e+04 8.769483566284e-01 0.000000000000e+00 0.000000000000e+00
     8.726736328125e+03-2.620678901672e+00-1.862645149231e-09 0.000000000000e+00
     2.023174804688e+04 1.687205314636e+00-1.862645149231e-09 0.000000000000e+00
R01 2019 11 12 07 59 30 5.253404378891e-05 0.000000000000e+00 2.015700000000e+05
    -1.913244970703e+04-1.666011810303e+00 1.862645149231e-09 0.000000000000e+00
     1.106551220703e+04 5.302658081055e-01-1.862645149231e-09 1.000000000000e+00
     1.273944824219e+04-2.959755897522e+00-9.313225746155e-10 0.000000000000e+00
G10 2019 11 12 10 00 00-1.314589753747e-04-1.489297574153e-11 0.000000000000e+00
     6.800000000000e+01 1.715625000000e+01 4.986279127112e-09-1.902131729707e-02
     7.636845111847e-07 5.039139417931e-03 4.598870873451e-06 5.153653694153e+03
     2.088000000000e+05 5.587935447693e-09 1.336353761138e+00 3.539025783539e-08
     9.636033097857e-01 2.902187500000e+02-2.740135354916e+00-8.343561828555e-09
     7.928901699153e-11 0.000000000000e+00 2.079000000000e+03 0.000000000000e+00
     2.000000000000e+00 0.000000000000e+00 1.862645149231e-09 6.800000000000e+01
     2.016060000000e+05 0.000000000000e+00
G12 2019 11 12 10 00 00 1.843511126935e-04-3.979039320257e-12 0.000000000000e+00
     2.900000000000e+01 3.025000000000e+01 4.468400412527e-09 6.933654501398e-01
     1.367181539536e-06 7.535747019574e-03 1.177191734314e-06 5.153552042007e+03
     2.088000000000e+05-1.098960638046e-07-1.733798698304e+00 1.490116119385e-08
     9.804931729963e-01 3.669687500000e+02 1.104584644624e+00-8.482853344891e-09
     1.092902666640e-10 0.000000000000e+00 2.079000000000e+03 0.000000000000e+00
     2.000000000000e+00 0.000000000000e+00-1.257285475731e-08 2.900000000000e+01
     2.016060000000e+05 0.000000000000e+00
G15 2019 11 12 10 00 00-2.732207067311e-04 2.728484105319e-12 0.000000000000e+00
     1.040000000000e+02-4.590625000000e+01 5.301292248672e-09-3.025095278949e+00
    -2.419576048851e-06 1.199260586873e-02 8.275732398033e-06 5.153593269348e+03
     2.088000000000e+05 7.078051567078e-08 2.287159602544e+00-1.601874828339e-07
     9.279789226641e-01 2.012187500000e+02 8.371049531699e-01-8.226771249473e-09
    -6.428839215530e-10 0.000000000000e+00 2.079000000000e+03 0.000000000000e+00
     2.000000000000e+00 0.000000000000e+00-1.117587089539e-08 1.040000000000e+02
     2.016060000000e+05 0.000000000000e+00
G24 2019 11 12 10 00 00-4.769302904606e-06-4.547473508865e-13 0.000000000000e+00
     4.900000000000e+01 1.123125000000e+02 4.630907181586e-09 2.226237684055e+00
     5.770474672318e-06 9.034347604029e-03 1.161545515060e-05 5.153681449890e+03
     2.088000000000e+05-1.378357410431e-07-2.905807039898e+00-1.080334186554e-07
     9.380572564329e-01 1.420000000000e+02 6.209790727624e-01-8.060335745337e-09
     1.125046862718e-10 0.000000000000e+00 2.079000000000e+03 0.000000000000e+00
     2.000000000000e+00 0.000000000000e+00 2.793967723846e-09 4.900000000000e+01
     2.016060000000e+05 0.000000000000e+00
G31 2019 11 12 09 59 44-2.660322934389e-06-2.501110429876e-12 0.000000000000e+00
     2.900000000000e+01 1.021562500000e+02 4.192674641728e-09 9.716849754252e-01
     5.539506673813e-06 9.523678105325e-03 1.001544296741e-05 5.153737533569e+03
     2.087840000000e+05 4.097819328308e-08-2.822290440914e+00 1.974403858185e-07
     9.593147303263e-01 1.827812500000e+02 5.971893461905e-02-7.892471610265e-09
     1.053615315878e-10 0.000000000000e+00 2.079000000000e+03 0.000000000000e+00
     2.000000000000e+00 0.000000000000e+00-1.350417733192e-08 2.900000000000e+01
     2.016060000000e+05 0.000000000000e+00
R13 2019 11 12 08 00 00-3.083795309067e-05 0.000000000000e+00 2.016000000000e+05
    -1.842252441406e+03 7.020854949951e-02 3.725290298462e-09 0.000000000000e+00
     2.506173974609e+04 6.197004318237e-01 1.862645149231e-09-2.000000000000e+00
    -4.401602539063e+03 3.506973266602e+00-9.313225746155e-10 0.000000000000e+00
R12 2019 11 12 08 00 00 7.849466055632e-05 3.637978807092e-12 2.016000000000e+05
    -9.639197265625e+03 4.386310577393e-01 1.862645149231e-09 0.000000000000e+00
     1.953257519531e+04-1.766548156738e+00-9.313225746155e-10-1.000000000000e+00
     1.328989160156e+04 2.923568725586e+00-1.862645149231e-09 0.000000000000e+00
R11 2019 11 12 08 00 00 2.025160938501e-05-9.094947017729e-13 2.016000000000e+05
    -1.160948876953e+04 5.402030944824e-01-9.313225746155e-10 0.000000000000e+00
     3.612224121094e+03-3.018720626831e+00-2.793967723846e-09 0.000000000000e+00
     2.244997558594e+04 7.614622116089e-01-1.862645149231e-09 0.000000000000e+00
R01 2019 11 12 08 00 00 5.253590643406e-05 0.000000000000e+00 2.016000000000e+05
    -2.139975634766e+04-8.430395126343e-01 9.313225746155e-10 0.000000000000e+00
     1.200533251953e+04 4.725933074951e-01-2.793967723846e-09 1.000000000000e+00
     6.988345703125e+03-3.388863563538e+00 0.000000000000e+00 0.000000000000e+00
G25 2019 11 12 10 00 00-1.703575253487e-05-4.547473508865e-13 0.000000000000e+00
     3.800000000000e+01 4.740625000000e+01 4.748412076137e-09 2.860432280372e-01
     2.346932888031e-06 8.561677648686e-03 1.382082700729e-06 5.153633796692e+03
     2.088000000000e+05-7.264316082001e-08-1.800281288370e+00 1.173466444016e-07
     9.678961682805e-01 3.592500000000e+02 8.890675487978e-01-8.627502227241e-09
     1.896507568581e-10 0.000000000000e+00 2.079000000000e+03 0.000000000000e+00
     2.000000000000e+00 0.000000000000e+00 5.587935447693e-09 3.800000000000e+01
     2.016360000000e+05 0.000000000000e+00
G32 2019 11 12 10 00 00 1.224060542881e-04 1.216449163621e-11 0.000000000000e+00
     9.600000000000e+01-3.875000000000e+01 4.610549190737e-09-1.361015277166e+00
    -2.026557922363e-06 3.273091162555e-03 9.166076779366e-06 5.153645378113e+03
     2.088000000000e+05 1.303851604462e-07 2.378992171053e+00-1.285225152969e-07
     9.567537313075e-01 2.047812500000e+02-2.540154074585e+00-7.976760835535e-09
    -7.003863167585e-10 0.000000000000e+00 2.079000000000e+03 0.000000000000e+00
     2.000000000000e+00 0.000000000000e+00 4.656612873077e-10 9.600000000000e+01
     2.017260000000e+05 0.000000000000e+00
G21 2019 11 12 09 59 44-8.736178278923e-05 6.025402399246e-12 0.000000000000e+00
     8.000000000000e+00-1.925000000000e+01 4.787699426899e-09 1.101601290915e-01
    -9.406358003616e-07 2.453785389662e-02 1.198239624500e-05 5.153623296738e+03
     2.087840000000e+05-2.868473529816e-07 2.291920546547e-01-1.508742570877e-07
     9.509515231765e-01 1.528125000000e+02-1.398306897895e+00-8.465352615916e-09
     3.960879272235e-10 0.000000000000e+00 2.079000000000e+03 0.000000000000e+00
     2.000000000000e+00 0.000000000000e+00-1.024454832077e-08 8.000000000000e+00
     2.016960000000e+05 0.000000000000e+00
R02 2019 11 12 08 05 00 3.973497077823e-04 1.818989403546e-12 2.019000000000e+05
    -4.099437500000e+03-2.784672737122e+00 9.313225746155e-10 0.000000000000e+00
     1.253450488281e+04 1.078401565552e+00-9.313225746155e-10-4.000000000000e+00
     2.185362402344e+04-1.147616386414e+00-2.793967723846e-09 0.000000000000e+00
G20 2019 11 12 10 00 00 5.274428986013e-04 1.136868377216e-13 0.000000000000e+00
     2.100000000000e+01 3.046875000000e+01 5.690951336680e-09 1.547906672275e+00
     1.572072505951e-06 5.045744706877e-03 4.542991518974e-06 5.153613454819e+03
     2.088000000000e+05 6.519258022308e-08 1.212068505530e+00-3.352761268616e-08
     9.316892720493e-01 2.722812500000e+02 2.482220100442e+00-8.628930858177e-09
     1.735786588193e-10 0.000000000000e+00 2.079000000000e+03 0.000000000000e+00
     2.000000000000e+00 0.000000000000e+00-8.381903171539e-09 2.100000000000e+01
     2.019660000000e+05 0.000000000000e+00
